OBJECT_NAME,OBJECT_ID,EPOCH,MEAN_MOTION,ECCENTRICITY,INCLINATION,RA_OF_ASC_NODE,ARG_OF_PERICENTER,MEAN_ANOMALY,EPHEMERIS_TYPE,CLASSIFICATION_TYPE,NORAD_CAT_ID,ELEMENT_SET_NO,REV_AT_EPOCH,BSTAR,MEAN_MOTION_DOT,MEAN_MOTION_DDOT
STARLINK-11714 [DTC],2025-111M,2026-07-22T11:37:45.748992,15.70988652,.00017551,43.0005,240.9171,263.5963,96.4705,0,U,64134,999,6784,.12267117E-2,.161046E-2,0
STARLINK-11712 [DTC],2025-111N,2026-07-22T11:30:18.423360,15.71060849,.00019924,42.9999,241.7724,298.0368,62.0298,0,U,64135,999,6783,.1629927E-2,.216225E-2,0
STARLINK-34254,2025-111P,2026-07-22T19:42:59.174208,15.27590353,.00019378,43.0007,34.4115,288.6747,71.3895,0,U,64136,999,6613,.71777346E-3,.19548E-3,0
STARLINK-34129,2025-111R,2026-07-22T22:14:29.715648,15.27613108,.00018075,43.0044,34.3382,270.5548,89.5097,0,U,64138,999,6619,.86093111E-3,.23529E-3,0
STARLINK-34212,2025-111S,2026-07-22T13:41:09.546432,15.27601620,.00015167,42.9971,35.9570,160.3059,199.7851,0,U,64139,999,6609,.91897161E-3,.25129E-3,0
STARLINK-34149,2025-111T,2026-07-22T20:12:35.497728,15.27581260,.00023382,43.0039,34.5605,283.0680,76.9910,0,U,64140,999,6613,.76598556E-3,.20877E-3,0
STARLINK-34054,2025-111U,2026-07-22T21:43:02.604000,15.27597114,.00015716,43.0028,34.1702,277.2410,82.8263,0,U,64141,999,6614,.73022038E-3,.19897E-3,0
STARLINK-34195,2025-111V,2026-07-22T19:52:14.208672,15.27583543,.00022683,43.0050,34.4553,283.2450,76.8149,0,U,64142,999,6613,.54298736E-3,.14711E-3,0
STARLINK-34133,2025-111W,2026-07-22T19:46:41.429568,15.27590282,.00026612,43.0077,34.4288,276.2010,83.8539,0,U,64143,999,6613,.65682791E-3,.17862E-3,0
STARLINK-34181,2025-111X,2026-07-22T21:52:17.396544,15.27603600,.00027927,43.0032,34.2207,259.0389,101.0149,0,U,64144,999,6614,.97794448E-3,.26767E-3,0
STARLINK-34186,2025-111Y,2026-07-22T22:05:14.763264,15.27605136,.0001755,43.0044,34.2897,276.5452,83.5200,0,U,64145,999,6614,.68942698E-3,.18772E-3,0
STARLINK-34314,2025-112A,2026-07-22T20:17:02.842656,15.05659468,.00015455,97.2833,252.3237,108.1942,251.9454,0,U,64146,999,6364,.73497767E-4,.1005E-4,0
STARLINK-33926,2025-112B,2026-07-22T21:16:53.871168,15.05660569,.0001994,97.2835,252.4215,116.8094,243.3338,0,U,64147,999,6365,.75838631E-3,.10906E-3,0
STARLINK-34213,2025-112C,2026-07-22T02:56:18.360672,15.05663294,.00019138,97.2843,251.6240,124.4387,235.7022,0,U,64148,999,6353,.22384734E-3,.3176E-4,0
STARLINK-33924,2025-112D,2026-07-22T09:31:04.013472,15.05660986,.00018472,97.2831,251.8622,104.2497,255.8936,0,U,64149,999,6357,.16306832E-3,.2298E-4,0
STARLINK-34209,2025-112E,2026-07-22T13:06:23.957568,15.05662815,.00024777,97.2845,252.1148,88.4669,271.6843,0,U,64150,999,6360,.25116645E-3,.3571E-4,0
STARLINK-34338,2025-112F,2026-07-22T12:54:26.042688,15.05659931,.00020834,97.2841,252.1298,92.7008,267.4458,0,U,64151,999,6360,-.68421631E-4,-.1044E-4,0
STARLINK-34348,2025-112G,2026-07-22T13:42:17.104320,15.05662893,.00012178,97.2830,252.0873,120.3344,239.8004,0,U,64152,999,6360,.20926863E-3,.2965E-4,0
STARLINK-34345,2025-112H,2026-07-22T21:28:49.315872,15.05661560,.00016978,97.2832,252.4116,144.0225,216.1117,0,U,64153,999,6365,.20103878E-3,.2846E-4,0
STARLINK-33945,2025-112J,2026-07-22T21:17:42.410688,15.05664199,.00013071,97.2828,260.9031,119.2929,240.8429,0,U,64154,999,6420,.26356766E-3,.375E-4,0
STARLINK-34346,2025-112K,2026-07-22T21:08:53.492352,15.05658112,.00023416,97.2841,252.4361,97.6961,262.4533,0,U,64155,999,6365,.29395759E-3,.4188E-4,0
STARLINK-34277,2025-112L,2026-07-22T17:09:38.274048,15.05665274,.00016544,97.2841,252.2051,97.1798,262.9617,0,U,64156,999,6362,.36795817E-3,.5259E-4,0
STARLINK-34166,2025-112N,2026-07-22T09:35:03.331104,15.05663183,.00026795,97.2831,251.8651,112.2228,247.9284,0,U,64158,999,6357,.15708572E-3,.2212E-4,0
STARLINK-34344,2025-112P,2026-07-22T09:23:05.696160,15.05661434,.0002374,97.2831,251.8767,113.3281,246.8196,0,U,64159,999,6357,.19558226E-3,.2768E-4,0
STARLINK-34339,2025-112Q,2026-07-22T08:59:10.373568,15.05665675,.00017955,97.2831,251.9034,117.9361,242.2049,0,U,64160,999,6357,.28870069E-3,.4113E-4,0
STARLINK-34341,2025-112R,2026-07-22T02:12:27.109152,15.05666200,.00015777,97.2829,251.6735,115.2160,244.9232,0,U,64161,999,6353,.3149794E-3,.4493E-4,0
STARLINK-34317,2025-112S,2026-07-22T14:34:07.653792,15.05663891,.0001427,97.2844,252.1974,132.2885,227.8464,0,U,64162,999,6361,.14382768E-3,.202E-4,0
STARLINK-34340,2025-112T,2026-07-22T09:15:07.178400,15.05662220,.00022543,97.2839,251.8868,128.6446,231.4984,0,U,64163,999,6357,.19186419E-3,.2714E-4,0
STARLINK-34263,2025-112U,2026-07-22T02:40:21.872064,15.05660118,.00022537,97.2834,251.6486,100.0031,260.1452,0,U,64164,999,6353,.14335627E-3,.2013E-4,0
STARLINK-33793,2025-112V,2026-07-22T13:38:17.685600,15.05662541,.000146,97.2814,252.0961,115.6100,244.5279,0,U,64165,999,6360,.14961857E-3,.2104E-4,0
