{"epoch":1784799577,"count":18318,"objects":[{"id":"64134","name":"STARLINK-11714","type":"PAYLOAD","l1":"1 64134U 25111M   26203.48455728  .00161046  00000-0  12267-2 0  9992","l2":"2 64134  43.0005 240.9171 0001755 263.5963  96.4705 15.70988652 67845"},{"id":"64135","name":"STARLINK-11712","type":"PAYLOAD","l1":"1 64135U 25111N   26203.47937990  .00216225  00000-0  16299-2 0  9997","l2":"2 64135  42.9999 241.7724 0001992 298.0368  62.0298 15.71060849 67839"},{"id":"64136","name":"STARLINK-34254","type":"PAYLOAD","l1":"1 64136U 25111P   26203.82151822  .00019548  00000-0  71777-3 0  9991","l2":"2 64136  43.0007  34.4115 0001938 288.6747  71.3895 15.27590353 66136"},{"id":"64138","name":"STARLINK-34129","type":"PAYLOAD","l1":"1 64138U 25111R   26203.92673282  .00023529  00000-0  86093-3 0  9994","l2":"2 64138  43.0044  34.3382 0001808 270.5548  89.5097 15.27613108 66194"},{"id":"64139","name":"STARLINK-34212","type":"PAYLOAD","l1":"1 64139U 25111S   26203.57024938  .00025129  00000-0  91897-3 0  9990","l2":"2 64139  42.9971  35.9570 0001517 160.3059 199.7851 15.27601620 66095"},{"id":"64140","name":"STARLINK-34149","type":"PAYLOAD","l1":"1 64140U 25111T   26203.84207752  .00020877  00000-0  76599-3 0  9996","l2":"2 64140  43.0039  34.5605 0002338 283.0680  76.9910 15.27581260 66137"},{"id":"64141","name":"STARLINK-34054","type":"PAYLOAD","l1":"1 64141U 25111U   26203.90489125  .00019897  00000-0  73022-3 0  9998","l2":"2 64141  43.0028  34.1702 0001572 277.2410  82.8263 15.27597114 66148"},{"id":"64142","name":"STARLINK-34195","type":"PAYLOAD","l1":"1 64142U 25111V   26203.82794223  .00014711  00000-0  54299-3 0  9993","l2":"2 64142  43.0050  34.4553 0002268 283.2450  76.8149 15.27583543 66131"},{"id":"64143","name":"STARLINK-34133","type":"PAYLOAD","l1":"1 64143U 25111W   26203.82409062  .00017862  00000-0  65683-3 0  9997","l2":"2 64143  43.0077  34.4288 0002661 276.2010  83.8539 15.27590282 66136"},{"id":"64144","name":"STARLINK-34181","type":"PAYLOAD","l1":"1 64144U 25111X   26203.91131246  .00026767  00000-0  97794-3 0  9996","l2":"2 64144  43.0032  34.2207 0002793 259.0389 101.0149 15.27603600 66141"},{"id":"64145","name":"STARLINK-34186","type":"PAYLOAD","l1":"1 64145U 25111Y   26203.92030976  .00018772  00000-0  68943-3 0  9997","l2":"2 64145  43.0044  34.2897 0001755 276.5452  83.5200 15.27605136 66140"},{"id":"64146","name":"STARLINK-34314","type":"PAYLOAD","l1":"1 64146U 25112A   26203.84517179  .00001005  00000-0  73498-4 0  9998","l2":"2 64146  97.2833 252.3237 0001546 108.1942 251.9454 15.05659468 63648"},{"id":"64147","name":"STARLINK-33926","type":"PAYLOAD","l1":"1 64147U 25112B   26203.88673462  .00010906  00000-0  75839-3 0  9991","l2":"2 64147  97.2835 252.4215 0001994 116.8094 243.3338 15.05660569 63650"},{"id":"64148","name":"STARLINK-34213","type":"PAYLOAD","l1":"1 64148U 25112C   26203.12243473  .00003176  00000-0  22385-3 0  9993","l2":"2 64148  97.2843 251.6240 0001914 124.4387 235.7022 15.05663294 63531"},{"id":"64149","name":"STARLINK-33924","type":"PAYLOAD","l1":"1 64149U 25112D   26203.39657423  .00002298  00000-0  16307-3 0  9998","l2":"2 64149  97.2831 251.8622 0001847 104.2497 255.8936 15.05660986 63574"},{"id":"64150","name":"STARLINK-34209","type":"PAYLOAD","l1":"1 64150U 25112E   26203.54611062  .00003571  00000-0  25117-3 0  9990","l2":"2 64150  97.2845 252.1148 0002478  88.4669 271.6843 15.05662815 63603"},{"id":"64151","name":"STARLINK-34338","type":"PAYLOAD","l1":"1 64151U 25112F   26203.53780142 -.00001044  00000-0 -68422-4 0  9998","l2":"2 64151  97.2841 252.1298 0002083  92.7008 267.4458 15.05659931 63603"},{"id":"64152","name":"STARLINK-34348","type":"PAYLOAD","l1":"1 64152U 25112G   26203.57103130  .00002965  00000-0  20927-3 0  9997","l2":"2 64152  97.2830 252.0873 0001218 120.3344 239.8004 15.05662893 63601"},{"id":"64153","name":"STARLINK-34345","type":"PAYLOAD","l1":"1 64153U 25112H   26203.89501523  .00002846  00000-0  20104-3 0  9996","l2":"2 64153  97.2832 252.4116 0001698 144.0225 216.1117 15.05661560 63659"},{"id":"64154","name":"STARLINK-33945","type":"PAYLOAD","l1":"1 64154U 25112J   26203.88729642  .00003750  00000-0  26357-3 0  9991","l2":"2 64154  97.2828 260.9031 0001307 119.2929 240.8429 15.05664199 64200"},{"id":"64155","name":"STARLINK-34346","type":"PAYLOAD","l1":"1 64155U 25112K   26203.88117468  .00004188  00000-0  29396-3 0  9991","l2":"2 64155  97.2841 252.4361 0002342  97.6961 262.4533 15.05658112 63655"},{"id":"64156","name":"STARLINK-34277","type":"PAYLOAD","l1":"1 64156U 25112L   26203.71502632  .00005259  00000-0  36796-3 0  9997","l2":"2 64156  97.2841 252.2051 0001654  97.1798 262.9617 15.05665274 63620"},{"id":"64158","name":"STARLINK-34166","type":"PAYLOAD","l1":"1 64158U 25112N   26203.39934411  .00002212  00000-0  15709-3 0  9994","l2":"2 64158  97.2831 251.8651 0002680 112.2228 247.9284 15.05663183 63573"},{"id":"64159","name":"STARLINK-34344","type":"PAYLOAD","l1":"1 64159U 25112P   26203.39103815  .00002768  00000-0  19558-3 0  9993","l2":"2 64159  97.2831 251.8767 0002374 113.3281 246.8196 15.05661434 63570"},{"id":"64160","name":"STARLINK-34339","type":"PAYLOAD","l1":"1 64160U 25112Q   26203.37442562  .00004113  00000-0  28870-3 0  9991","l2":"2 64160  97.2831 251.9034 0001795 117.9361 242.2049 15.05665675 63573"},{"id":"64161","name":"STARLINK-34341","type":"PAYLOAD","l1":"1 64161U 25112R   26203.09198043  .00004493  00000-0  31498-3 0  9994","l2":"2 64161  97.2829 251.6735 0001578 115.2160 244.9232 15.05666200 63537"},{"id":"64162","name":"STARLINK-34317","type":"PAYLOAD","l1":"1 64162U 25112S   26203.60703303  .00002020  00000-0  14383-3 0  9991","l2":"2 64162  97.2844 252.1974 0001427 132.2885 227.8464 15.05663891 63611"},{"id":"64163","name":"STARLINK-34340","type":"PAYLOAD","l1":"1 64163U 25112T   26203.38549975  .00002714  00000-0  19186-3 0  9996","l2":"2 64163  97.2839 251.8868 0002254 128.6446 231.4984 15.05662220 63573"},{"id":"64164","name":"STARLINK-34263","type":"PAYLOAD","l1":"1 64164U 25112U   26203.11136426  .00002013  00000-0  14336-3 0  9995","l2":"2 64164  97.2834 251.6486 0002254 100.0031 260.1452 15.05660118 63536"},{"id":"64165","name":"STARLINK-33793","type":"PAYLOAD","l1":"1 64165U 25112V   26203.56826025  .00002104  00000-0  14962-3 0  9992","l2":"2 64165  97.2814 252.0961 0001460 115.6100 244.5279 15.05662541 63608"}]}